ASTROCAST-0404          
1 55112U 23001DH  26068.80836714  .00008870  00000+0  34436-3 0  9994
2 55112  97.5646 161.5422 0006847   1.1317 358.9936 15.26309833129366
STARLINK-34212          
1 64139U 25111S   26068.41647915  .00027646  00000+0  10101-2 0  9991
2 64139  43.0059  79.2366 0001788 282.8716  77.1936 15.27588915 45426
