[{"OBJECT_NAME":"ASTROCAST-0404","OBJECT_ID":"2023-001DH","EPOCH":"2026-03-09T19:24:02.920896","MEAN_MOTION":15.26309833,"ECCENTRICITY":0.00068478,"INCLINATION":97.5646,"RA_OF_ASC_NODE":161.5422,"ARG_OF_PERICENTER":1.1317,"MEAN_ANOMALY":358.9936,"EPHEMERIS_TYPE":0,"CLASSIFICATION_TYPE":"U","NORAD_CAT_ID":55112,"ELEMENT_SET_NO":999,"REV_AT_EPOCH":12936,"BSTAR":0.00034435555,"MEAN_MOTION_DOT":8.87e-5,"MEAN_MOTION_DDOT":0},{"OBJECT_NAME":"STARLINK-34212","OBJECT_ID":"2025-111S","EPOCH":"2026-03-09T09:59:43.798560","MEAN_MOTION":15.27588915,"ECCENTRICITY":0.00017882,"INCLINATION":43.0059,"RA_OF_ASC_NODE":79.2366,"ARG_OF_PERICENTER":282.8716,"MEAN_ANOMALY":77.1936,"EPHEMERIS_TYPE":0,"CLASSIFICATION_TYPE":"U","NORAD_CAT_ID":64139,"ELEMENT_SET_NO":999,"REV_AT_EPOCH":4542,"BSTAR":0.0010101297,"MEAN_MOTION_DOT":0.00027646,"MEAN_MOTION_DDOT":0}]
